STARLINK-4197           
1 52849U 22062V   25294.40399462 -.00007595  00000+0 -45979-3 0  9993
2 52849  53.2158 289.3998 0001247  87.1246 272.9889 15.08826145184899
STARLINK-4187           
1 52850U 22062W   25294.18327912 -.00000376  00000+0 -55264-5 0  9991
2 52850  53.2175 300.7451 0001381  87.2948 272.8203 15.08837855184722
STARLINK-3809           
1 52851U 22062X   25294.26784109 -.00000587  00000+0 -18793-4 0  9995
2 52851  53.2181 290.0116 0001177  81.1774 278.9352 15.08833584184875
STARLINK-4184           
1 52852U 22062Y   25294.27519642  .00000804  00000+0  68563-4 0  9995
2 52852  53.2166 289.9777 0001245  84.9158 275.1976 15.08841343184875
STARLINK-4189           
1 52853U 22062Z   25294.25774716  .00001655  00000+0  12202-3 0  9992
2 52853  53.2167 290.0264 0001541  86.3036 273.8133 15.08847514184877
STARLINK-4204           
1 52854U 22062AA  25294.39663226  .00001595  00000+0  11824-3 0  9993
2 52854  53.2166 289.4326 0001467  91.5873 268.5288 15.08844066184895
STARLINK-4209           
1 52855U 22062AB  25294.25311694  .00000509  00000+0  50080-4 0  9990
2 52855  53.2174 290.0760 0001464  86.1627 273.9533 15.08839288184870
STARLINK-4201           
1 52856U 22062AC  25294.26143831  .00012029  00000+0  77225-3 0  9997
2 52856  53.2165 290.0872 0001322  80.1513 279.9628 15.08854372184878
STARLINK-4199           
1 52857U 22062AD  25294.97440087  .00000498  00000+0  49376-4 0  9993
2 52857  53.2179 286.8379 0001449  82.7518 277.3639 15.08835661184988
STARLINK-4198           
1 52858U 22062AE  25294.25679562  .00001372  00000+0  10427-3 0  9993
2 52858  53.2173 290.0888 0001440  87.4406 272.6751 15.08845000184873
STARLINK-4196           
1 52859U 22062AF  25294.37455716  .00001345  00000+0  10259-3 0  9993
2 52859  53.2180 289.5304 0001442  80.1100 280.0055 15.08839864184894
STARLINK-4191           
1 52860U 22062AG  25294.38191724  .00000534  00000+0  51660-4 0  9993
2 52860  53.2170 289.4997 0001432  88.9511 271.1645 15.08841618184899
STARLINK-4112           
1 52861U 22062AH  25294.29087034  .00000496  00000+0  49226-4 0  9994
2 52861  53.2173 289.9166 0001456  90.3545 269.7614 15.08840174184880
STARLINK-4010           
1 52862U 22062AJ  25294.37088795  .00001306  00000+0  10015-3 0  9993
2 52862  53.2159 289.5485 0001250  93.6381 266.4754 15.08841110184892
STARLINK-4270           
1 52863U 22062AK  25294.36351726  .00000766  00000+0  66213-4 0  9991
2 52863  53.2169 289.5793 0001358  95.6583 264.4564 15.08839163184893
STARLINK-4267           
1 52864U 22062AL  25294.36719857  .00000576  00000+0  54266-4 0  9999
2 52864  53.2167 289.5645 0001483  93.1048 267.0113 15.08836748184891
STARLINK-4274           
1 52865U 22062AM  25294.21999530  .00002166  00000+0  15410-3 0  9996
2 52865  53.2160 290.2265 0001488  87.3972 272.7190 15.08847341184875
STARLINK-4272           
1 52866U 22062AN  25294.29359520  .00000562  00000+0  53376-4 0  9996
2 52866  53.2168 289.8967 0001492  95.9585 264.1577 15.08837369184881
STARLINK-4126           
1 52867U 22062AP  25294.94126631  .00002644  00000+0  18413-3 0  9999
2 52867  53.2162 286.9879 0001808  98.5185 261.6013 15.08839512184982
STARLINK-4261           
1 52868U 22062AQ  25294.28992158  .00000336  00000+0  39206-4 0  9992
2 52868  53.2162 289.9412 0001379  94.0827 266.0323 15.08835612184885
STARLINK-4266           
1 52869U 22062AR  25294.40493104  .00007850  00000+0  51078-3 0  9992
2 52869  53.2164 279.3952 0001617  86.4066 273.7111 15.08836157185038
STARLINK-4195           
1 52870U 22062AS  25294.21631154  .00000456  00000+0  46742-4 0  9990
2 52870  53.2161 290.2428 0001371  92.4778 267.6371 15.08840901184874
STARLINK-4207           
1 52871U 22062AT  25294.26139873  .00007408  00000+0  48339-3 0  9994
2 52871  53.2157 280.0400 0001693  97.1027 263.0157 15.08815327185016
STARLINK-4213           
1 52872U 22062AU  25294.39851673 -.00001572  00000+0 -80753-4 0  9993
2 52872  53.2164 279.3963 0001369  96.8799 263.2349 15.08824353185038
STARLINK-4211           
1 52873U 22062AV  25294.25403667  .00000484  00000+0  48506-4 0  9994
2 52873  53.2162 280.0715 0001371  93.1639 266.9510 15.08837182185019
STARLINK-4193           
1 52875U 22062AX  25294.38283590  .00000121  00000+0  25716-4 0  9997
2 52875  53.2179 279.4945 0001536  99.7202 260.3964 15.08839133185038
STARLINK-4200           
1 52876U 22062AY  25294.25771502  .00000326  00000+0  38564-4 0  9991
2 52876  53.2161 280.0568 0001257  87.3770 272.7366 15.08838579185016
STARLINK-4214           
1 52877U 22062AZ  25294.22459203  .00001819  00000+0  13231-3 0  9991
2 52877  53.2171 280.2106 0001481  85.2689 274.8472 15.08844683185017
STARLINK-4171           
1 52878U 22062BA  25294.37915830  .00005968  00000+0  39272-3 0  9993
2 52878  53.2161 279.5104 0001372  90.4298 269.6851 15.08842809185032
STARLINK-4139           
1 52879U 22062BB  25294.34603945  .00002209  00000+0  15685-3 0  9999
2 52879  53.2172 279.6593 0001267  95.0917 265.0220 15.08829960185033
STARLINK-4186           
1 52880U 22062BC  25294.34971511  .00000842  00000+0  70989-4 0  9998
2 52880  53.2167 279.6408 0001219  88.9957 271.1175 15.08843002185036
STARLINK-4181           
1 52882U 22062BE  25294.23558326  .00003740  00000+0  25296-3 0  9993
2 52882  53.2171 279.7312 0001175 118.2807 241.8304 15.08835048185028
GLOBALSTAR M087         
1 52888U 22064A   25294.66001355 -.00000112  00000+0 -47669-4 0  9994
2 52888  51.9998  68.6333 0000907 117.1348 242.9611 12.62289448161014
PVSAT                   
1 52894U 22065A   25294.95025279  .00000699  00000+0  15758-3 0  9996
2 52894  98.1959  71.8772 0010188  45.7914 314.4121 14.59303501177609
KSLV-II DUMMY           
1 52895U 22065B   25294.93964622  .00000139  00000+0  39736-4 0  9991
2 52895  98.2010  72.4646 0009420  62.0623 298.1529 14.58631435177623
STEP CUBE LAB-II        
1 52897U 22065D   25294.92898963  .00001800  00000+0  36270-3 0  9991
2 52897  98.1907  75.1463 0009593  56.7340 303.4780 14.62699631176662
RANDEV                  
1 52898U 22065E   25294.92179620  .00001988  00000+0  39652-3 0  9998
2 52898  98.1896  75.3896 0008897  57.6518 302.5544 14.63038955176402
SNUGLITE-II             
1 52899U 22065F   25294.91735848  .00002232  00000+0  43853-3 0  9999
2 52899  98.1884  75.7646 0008415  57.4008 302.8005 14.63616669176134
MIMAN                   
1 52900U 22065G   25294.95809856  .00001417  00000+0  29582-3 0  9994
2 52900  98.1936  74.2002 0008570  56.6318 303.5702 14.61407411175640
CMS-02 (GSAT 24)        
1 52903U 22067A   25294.93395976 -.00000157  00000+0  00000+0 0  9991
2 52903   0.0195 248.2075 0003255   6.5139 195.1504  1.00271825 12210
MEASAT 3D               
1 52904U 22067B   25294.91520493 -.00000234  00000+0  00000+0 0  9990
2 52904   0.0389 345.7369 0002537 271.7316 194.1435  1.00272837 12261
YAOGAN-35 02A           
1 52907U 22068A   25294.98809306  .00012265  00000+0  55889-3 0  9999
2 52907  34.9921 194.8178 0009650  84.4271 275.7543 15.19836321185575
YAOGAN-35 02B           
1 52908U 22068B   25294.99247900  .00043304  00000+0  12315-2 0  9991
2 52908  34.9994 170.0882 0004820 329.4501  30.5936 15.35100138185803
GAOFEN-12 03            
1 52912U 22069A   25294.96943543  .00002571  00000+0  34988-3 0  9992
2 52912  97.8510 183.5074 0001630  81.7363 278.4034 14.79604218179385
SES-22                  
1 52933U 22071A   25294.66577801  .00000112  00000+0  00000+0 0  9998
2 52933   0.0079 203.2374 0000943   8.7180 279.0861  1.00272270  5134
DS-EO                   
1 52935U 22072A   25294.86116523  .00008215  00000+0  42916-3 0  9991
2 52935   9.9935 163.5912 0002753  72.0192 288.0323 15.11125819182366
WFOV (USA 332)          
1 52940U 22073A   25294.85973895 -.00000352  00000+0  00000+0 0  9999
2 52940   3.0949  81.5933 0001582  75.6758 302.0352  1.00268160 11988
COSMOS 2557 [GLONASS-K] 
1 52984U 22075A   25292.84747582 -.00000043  00000+0  00000+0 0  9995
2 52984  64.4383 322.9474 0013578 272.6656  87.2414  2.13102181 25593
STARLINK-4260           
1 52986U 22076A   25294.47483685  .00000132  00000+0  26406-4 0  9991
2 52986  53.2187 359.0795 0001433  90.9057 269.2099 15.08841132181827
STARLINK-4259           
1 52987U 22076B   25294.91183240  .00002188  00000+0  15549-3 0  9993
2 52987  53.2185   7.1174 0001072  93.6920 266.4195 15.08843582181755
STARLINK-4291           
1 52988U 22076C   25294.47115873  .00000028  00000+0  19835-4 0  9996
2 52988  53.2181 359.0988 0001216  86.5578 273.5553 15.08836572181820
STARLINK-4293           
1 52989U 22076D   25294.90814808 -.00002759  00000+0 -15522-3 0  9992
2 52989  53.2194   7.1342 0001596 112.7140 247.4021 15.08860879181757
STARLINK-4286           
1 52990U 22076E   25294.90447759  .00001829  00000+0  13300-3 0  9998
2 52990  53.2183   7.1530 0001310  98.4918 261.6223 15.08837371181756
STARLINK-4285           
1 52991U 22076F   25294.90078276 -.00005154  00000+0 -30565-3 0  9992
2 52991  53.2198   7.1683 0001393 102.6105 257.5043 15.08873161181750
STARLINK-4269           
1 52992U 22076G   25294.89806836 -.00003244  00000+0 -18576-3 0  9998
2 52992  53.2184   7.1914 0001353  75.6222 284.4920 15.08855991181752
STARLINK-4264           
1 52993U 22076H   25294.59994733 -.00000024  00000+0  16578-4 0  9993
2 52993  53.2184 358.5172 0001131 125.6911 234.4187 15.08852577181844
STARLINK-4256           
1 52994U 22076J   25294.46379999  .00000740  00000+0  64620-4 0  9996
2 52994  53.2182 359.1307 0001443  88.4197 271.6961 15.08834127181820
STARLINK-4296           
1 52995U 22076K   25294.45643540  .00001475  00000+0  11071-3 0  9999
2 52995  53.2174 359.1647 0001500  92.8342 267.2822 15.08843815181825
STARLINK-4295           
1 52996U 22076L   25294.48686606 -.00000383  00000+0 -59532-5 0  9998
2 52996  53.2179 359.3080 0001419 111.8770 248.2373 15.08847865181829
